

*******************************************************************************
Ephemeris / WWW_USER Wed Mar 13 03:30:04 2024 Pasadena, USA      / Horizons
*******************************************************************************
Target body name: SOHO (spacecraft) (-21)         {source: SOHO_merged}
Center body name: Earth (399)                     {source: DE441}
Center-site name: BODY CENTER
*******************************************************************************
Start time      : A.D. 1996-Mar-19 00:00:00.0000 TDB
Stop  time      : A.D. 1996-Mar-22 00:00:00.0000 TDB
Step-size       : 1 minutes
*******************************************************************************
Center geodetic : 0.0, 0.0, 0.0                   {E-lon(deg),Lat(deg),Alt(km)}
Center cylindric: 0.0, 0.0, 0.0                   {E-lon(deg),Dxy(km),Dz(km)}
Center radii    : 6378.137, 6378.137, 6356.752 km {Equator_a, b, pole_c}
Output units    : KM-S
Calendar mode   : Mixed Julian/Gregorian
Output type     : GEOMETRIC cartesian states
Output format   : 2 (position and velocity)
EOP file        : eop.240312.p240605
EOP coverage    : DATA-BASED 1962-JAN-20 TO 2024-MAR-12. PREDICTS-> 2024-JUN-04
Reference frame : ICRF
*******************************************************************************
            JDTDB,            Calendar Date (TDB),                      X,                      Y,                      Z,                     VX,                     VY,                     VZ,
**************************************************************************************************************************************************************************************************
$$SOE
2450161.791666667, A.D. 1996-Mar-19 07:00:00.0000,  1.249449645070633E+06,  4.237229544512284E+04,  1.352633036415977E+05,  2.548866012197263E-03,  5.088251774780511E-01,  2.082012675199746E-01,
2450161.792361111, A.D. 1996-Mar-19 07:01:00.0000,  1.249449794549776E+06,  4.240282491338804E+04,  1.352757949833976E+05,  2.537417023304936E-03,  5.088245238347510E-01,  2.081991762052816E-01,
2450161.793055556, A.D. 1996-Mar-19 07:02:00.0000,  1.249449945809499E+06,  4.243335431424160E+04,  1.352882863367031E+05,  2.525971927653245E-03,  5.088238666610474E-01,  2.081970814092094E-01,
2450161.793750000, A.D. 1996-Mar-19 07:03:00.0000,  1.249450097300922E+06,  4.246388366263925E+04,  1.353007776143490E+05,  2.514528369860800E-03,  5.088232082276369E-01,  2.081949850856871E-01,
2450161.794444445, A.D. 1996-Mar-19 07:04:00.0000,  1.249450248817574E+06,  4.249441296162406E+04,  1.353132688159572E+05,  2.503086201471133E-03,  5.088225488138554E-01,  2.081928873565586E-01,
2450161.795138889, A.D. 1996-Mar-19 07:05:00.0000,  1.249450400185598E+06,  4.252494221407411E+04,  1.353257599428534E+05,  2.491645316938473E-03,  5.088218886398796E-01,  2.081907883170351E-01,
2450161.795833333, A.D. 1996-Mar-19 07:06:00.0000,  1.249450551215161E+06,  4.255547142310900E+04,  1.353382509945299E+05,  2.480205566475605E-03,  5.088212279391200E-01,  2.081886881080313E-01,
2450161.796527778, A.D. 1996-Mar-19 07:07:00.0000,  1.249450701709635E+06,  4.258600059197503E+04,  1.353507419688664E+05,  2.468766764492284E-03,  5.088205669455946E-01,  2.081865869084797E-01,
2450161.797222222, A.D. 1996-Mar-19 07:08:00.0000,  1.249450851474956E+06,  4.261652972392642E+04,  1.353632328623965E+05,  2.457328699057194E-03,  5.088199058811573E-01,  2.081844849265377E-01,
2450161.797916667, A.D. 1996-Mar-19 07:09:00.0000,  1.249451000328876E+06,  4.264705882210648E+04,  1.353757236706108E+05,  2.445891142044986E-03,  5.088192449430270E-01,  2.081823823899868E-01,
2450161.798611111, A.D. 1996-Mar-19 07:10:00.0000,  1.249451148109800E+06,  4.267758788943167E+04,  1.353882143882838E+05,  2.434453859619633E-03,  5.088185842920612E-01,  2.081802795361352E-01,
2450161.799305555, A.D. 1996-Mar-19 07:11:00.0000,  1.249451294684882E+06,  4.270811692848212E+04,  1.354007050098150E+05,  2.423016622701510E-03,  5.088179240422170E-01,  2.081781766015395E-01,
2450161.800000000, A.D. 1996-Mar-19 07:12:00.0000,  1.249451438266671E+06,  4.273864595362715E+04,  1.354131954978738E+05,  2.411577813393820E-03,  5.088172668627411E-01,  2.081760746269040E-01,
2450161.800694444, A.D. 1996-Mar-19 07:13:00.0000,  1.249451580569505E+06,  4.276917495368911E+04,  1.354256858803047E+05,  2.400138711208129E-03,  5.088166100153735E-01,  2.081739729640755E-01,
2450161.801388889, A.D. 1996-Mar-19 07:14:00.0000,  1.249451721788600E+06,  4.279970392821389E+04,  1.354381761562135E+05,  2.388699328733391E-03,  5.088159531118147E-01,  2.081718716899731E-01,
2450161.802083333, A.D. 1996-Mar-19 07:15:00.0000,  1.249451862083722E+06,  4.283023287670583E+04,  1.354506663240161E+05,  2.377259648547017E-03,  5.088152958238557E-01,  2.081697708845887E-01,
2450161.802777778, A.D. 1996-Mar-19 07:16:00.0000,  1.249452001635905E+06,  4.286076179818900E+04,  1.354631563827229E+05,  2.365819675237937E-03,  5.088146377975348E-01,  2.081676705973718E-01,
2450161.803472222, A.D. 1996-Mar-19 07:17:00.0000,  1.249452140638660E+06,  4.289129069124921E+04,  1.354756463319831E+05,  2.354379432905243E-03,  5.088139786683288E-01,  2.081655708457651E-01,
2450161.804166667, A.D. 1996-Mar-19 07:18:00.0000,  1.249452279288747E+06,  4.292181955408776E+04,  1.354881361721001E+05,  2.342938962032918E-03,  5.088133180768624E-01,  2.081634716146894E-01,
2450161.804861111, A.D. 1996-Mar-19 07:19:00.0000,  1.249452417776806E+06,  4.295234838458471E+04,  1.355006259040180E+05,  2.331498315879964E-03,  5.088126556846182E-01,  2.081613728569889E-01,
2450161.805555556, A.D. 1996-Mar-19 07:20:00.0000,  1.249452556278159E+06,  4.298287718037022E+04,  1.355131155292798E+05,  2.320057556532815E-03,  5.088119911891483E-01,  2.081592744948272E-01,
2450161.806250000, A.D. 1996-Mar-19 07:21:00.0000,  1.249452694944109E+06,  4.301340593890225E+04,  1.355256050499587E+05,  2.308616750771657E-03,  5.088113243382772E-01,  2.081571764220129E-01,
2450161.806944444, A.D. 1996-Mar-19 07:22:00.0000,  1.249452835388246E+06,  4.304393465905813E+04,  1.355380944383752E+05,  2.297176539448364E-03,  5.088106526486386E-01,  2.081550793373496E-01,
2450161.807638889, A.D. 1996-Mar-19 07:23:00.0000,  1.249452976126837E+06,  4.307446333661926E+04,  1.355505837289514E+05,  2.285736385917183E-03,  5.088099784065312E-01,  2.081529822193857E-01,
2450161.808333333, A.D. 1996-Mar-19 07:24:00.0000,  1.249453117015209E+06,  4.310499196884320E+04,  1.355630729283337E+05,  2.274296277226462E-03,  5.088093018564248E-01,  2.081508847989692E-01,
2450161.809027778, A.D. 1996-Mar-19 07:25:00.0000,  1.249453257934558E+06,  4.313552055322403E+04,  1.355755620416781E+05,  2.262856218214638E-03,  5.088086232167336E-01,  2.081487868374213E-01,
2450161.809722222, A.D. 1996-Mar-19 07:26:00.0000,  1.249453398740173E+06,  4.316604908752130E+04,  1.355880510734746E+05,  2.251416209636042E-03,  5.088079427585520E-01,  2.081466881050901E-01,
2450161.810416667, A.D. 1996-Mar-19 07:27:00.0000,  1.249453539267668E+06,  4.319657756984010E+04,  1.356005400272243E+05,  2.239976248467977E-03,  5.088072607949518E-01,  2.081445883915385E-01,
2450161.811111111, A.D. 1996-Mar-19 07:28:00.0000,  1.249453679339776E+06,  4.322710599870195E+04,  1.356130289051395E+05,  2.228536328396756E-03,  5.088065776690726E-01,  2.081424875152412E-01,
2450161.811805556, A.D. 1996-Mar-19 07:29:00.0000,  1.249453818773465E+06,  4.325763437310432E+04,  1.356255177078772E+05,  2.217096440448167E-03,  5.088058937413648E-01,  2.081403853324774E-01,
2450161.812500000, A.D. 1996-Mar-19 07:30:00.0000,  1.249453957387151E+06,  4.328816269256716E+04,  1.356380064343160E+05,  2.205656573725326E-03,  5.088052093763566E-01,  2.081382817451176E-01,
2450161.813194444, A.D. 1996-Mar-19 07:31:00.0000,  1.249454095007763E+06,  4.331869095716430E+04,  1.356504950813863E+05,  2.194216716215242E-03,  5.088045249293335E-01,  2.081361767070179E-01,
2450161.813888889, A.D. 1996-Mar-19 07:32:00.0000,  1.249454230390709E+06,  4.334921914836969E+04,  1.356629837254674E+05,  2.182776583945812E-03,  5.088038415483398E-01,  2.081340680251443E-01,
2450161.814583333, A.D. 1996-Mar-19 07:33:00.0000,  1.249454364537055E+06,  4.337974728745945E+04,  1.356754722740192E+05,  2.171336449585445E-03,  5.088031586784937E-01,  2.081319580765966E-01,
2450161.815277778, A.D. 1996-Mar-19 07:34:00.0000,  1.249454497468330E+06,  4.341027537850784E+04,  1.356879607079069E+05,  2.159896335603320E-03,  5.088024764735054E-01,  2.081298472587040E-01,
2450161.815972222, A.D. 1996-Mar-19 07:35:00.0000,  1.249454629182958E+06,  4.344080342514216E+04,  1.357004490101113E+05,  2.148456253005456E-03,  5.088017950715974E-01,  2.081277359183480E-01,
2450161.816666667, A.D. 1996-Mar-19 07:36:00.0000,  1.249454759695421E+06,  4.347133143111924E+04,  1.357129371632296E+05,  2.137016210932119E-03,  5.088011145601893E-01,  2.081256244213147E-01,
2450161.817361111, A.D. 1996-Mar-19 07:37:00.0000,  1.249454889033325E+06,  4.350185940016354E+04,  1.357254251501219E+05,  2.125576215913636E-03,  5.088004349731632E-01,  2.081235131365429E-01,
2450161.818055556, A.D. 1996-Mar-19 07:38:00.0000,  1.249455017234122E+06,  4.353238733580641E+04,  1.357379129545601E+05,  2.114136271230830E-03,  5.087997562895520E-01,  2.081214024201938E-01,
2450161.818750000, A.D. 1996-Mar-19 07:39:00.0000,  1.249455144341630E+06,  4.356291524123135E+04,  1.357504005618614E+05,  2.102696376417263E-03,  5.087990784336969E-01,  2.081192926000565E-01,
2450161.819444444, A.D. 1996-Mar-19 07:40:00.0000,  1.249455270402505E+06,  4.359344311913074E+04,  1.357628879594839E+05,  2.091256526938020E-03,  5.087984012768967E-01,  2.081171839607996E-01,
2450161.820138889, A.D. 1996-Mar-19 07:41:00.0000,  1.249455395462796E+06,  4.362397097157873E+04,  1.357753751375674E+05,  2.079816714076400E-03,  5.087977246405438E-01,  2.081150767305633E-01,
